[{"OBJECT_NAME":"LYNK TOWER 6","OBJECT_ID":"2024-043AB","EPOCH":"2026-03-09T21:28:38.303328","MEAN_MOTION":15.29548678,"ECCENTRICITY":0.00097492,"INCLINATION":97.5426,"RA_OF_ASC_NODE":204.1954,"ARG_OF_PERICENTER":232.0253,"MEAN_ANOMALY":128.0107,"EPHEMERIS_TYPE":0,"CLASSIFICATION_TYPE":"U","NORAD_CAT_ID":59123,"ELEMENT_SET_NO":999,"REV_AT_EPOCH":11184,"BSTAR":0.00040142146,"MEAN_MOTION_DOT":0.0001144,"MEAN_MOTION_DDOT":0},{"OBJECT_NAME":"STARLINK-31825","OBJECT_ID":"2024-112U","EPOCH":"2026-03-09T07:08:09.313728","MEAN_MOTION":15.30191486,"ECCENTRICITY":0.00016374,"INCLINATION":53.1604,"RA_OF_ASC_NODE":80.0226,"ARG_OF_PERICENTER":79.6481,"MEAN_ANOMALY":280.4704,"EPHEMERIS_TYPE":0,"CLASSIFICATION_TYPE":"U","NORAD_CAT_ID":60056,"ELEMENT_SET_NO":999,"REV_AT_EPOCH":9853,"BSTAR":-5.985764e-6,"MEAN_MOTION_DOT":-5.37e-6,"MEAN_MOTION_DDOT":0}]
